satname,norad_id,inclination_deg,eccentricity,mean_motion_rev_per_day,perigee_km,apogee_km,l1,l2
STARLINK-1280,45388,53.0511,0.0010377,15.46012801,421.3406342207918,435.46692895890374,1 45388U 20019AE  25343.30720081  .00025925  00000+0  52876-3 0  9991,2 45388  53.0511 199.7382 0010377 123.7932 236.4064 15.46012801316271
STARLINK-1283,45389,53.051,0.0010479,15.35595741,451.98675768292924,466.31634703096006,1 45389U 20019AF  25343.84289541  .00088070  00000+0  24867-2 0  9990,2 45389  53.0510 179.0507 0010479 135.6295 224.5548 15.35595741316629
STARLINK-1284,45390,53.053,0.0001435,15.06401764,546.2123647953704,548.1999382798613,1 45390U 20019AG  25343.85280249  .00000614  00000+0  60117-4 0  9997,2 45390  53.0530 189.9153 0001435  90.2855 269.8299 15.06401764316466
STARLINK-1297,45395,53.0532,0.0001408,15.06405985,546.2181283417585,548.1683013302563,1 45395U 20019AM  25343.29254991  .00001439  00000+0  11549-3 0  9995,2 45395  53.0532 192.4274 0001408  86.5853 273.5297 15.06405985315561
STARLINK-1307,45397,53.054,0.0001382,15.06395531,546.268169749871,548.1823398771012,1 45397U 20019AP  25343.61691286  .00000889  00000+0  78593-4 0  9996,2 45397  53.0540 190.9702 0001382  91.2309 268.8839 15.06395531316252
STARLINK-1255,45399,53.0465,0.0007988,15.35531073,453.88173719912083,464.805296072499,1 45399U 20019AR  25343.78643014  .00083577  00000+0  23683-2 0  9995,2 45399  53.0465 170.3862 0007988 140.2412 219.9176 15.35531073316545
STARLINK-1260,45404,53.054,0.0001467,15.06402504,546.1879360419334,548.2198310571666,1 45404U 20019AW  25343.81686747  .00000470  00000+0  50421-4 0  9999,2 45404  53.0540 180.0702 0001467  89.5111 270.6046 15.06402504316313
STARLINK-1263,45405,53.0533,0.0001252,15.06381052,546.4025705277327,548.1366923482456,1 45405U 20019AX  25343.27134330  .00004876  00000+0  34621-3 0  9993,2 45405  53.0533 182.5244 0001252  92.0001 268.1131 15.06381052316235
STARLINK-1265,45406,53.054,0.0001676,15.06399306,546.0529961743423,548.3743737239365,1 45406U 20019AY  25343.80949278  .00000978  00000+0  84579-4 0  9995,2 45406  53.0540 180.1082 0001676  87.9783 272.1398 15.06399306316318
STARLINK-1278,45408,53.0525,0.0009591,15.38643258,443.5713945098887,456.66935780883796,1 45408U 20019BA  25342.94108758  .00096268  00000+0  24605-2 0  9990,2 45408  53.0525 203.8212 0009591 116.1603 244.0387 15.38643258315915
STARLINK-1296,45412,53.0535,0.0001489,15.06398693,546.1843787111948,548.246748704667,1 45412U 20019BE  25343.81318041  .00000857  00000+0  76434-4 0  9998,2 45412  53.0535 180.0883 0001489  93.4151 266.7008 15.06398693316315
STARLINK-1298,45413,53.0444,0.000714,15.60175921,382.3180629076178,391.97889056840086,1 45413U 20019BF  25343.91670139  .00199289  00000+0  23499-2 0  9998,2 45413  53.0444 141.8218 0007140  88.9635 106.9884 15.60175921  5801
STARLINK-1309,45414,53.0537,0.0001642,15.06402131,546.0678855771075,548.342167898687,1 45414U 20019BG  25343.82792051  .00000864  00000+0  76902-4 0  9996,2 45414  53.0537 180.0252 0001642  89.7623 270.3554 15.06402131316301
STARLINK-1316,45415,53.0538,0.0001343,15.06393994,546.299888740944,548.1600423078844,1 45415U 20019BH  25343.85373150  .00000599  00000+0  59096-4 0  9995,2 45415  53.0538 179.9066 0001343  87.4402 272.6741 15.06393994316344
STARLINK-1318,45416,53.047,0.0002002,15.6707105,365.93857642659077,368.6394450012813,1 45416U 20019BJ  25343.91670139  .00177183  00000+0  15998-2 0  9995,2 45416  53.0470 131.3035 0002002 168.2023  41.6489 15.67071050  5989
STARLINK-1286,45417,53.0527,0.0006116,15.40299928,441.05024148235043,449.39657593428365,1 45417U 20019BK  25343.31886758  .00104693  00000+0  25328-2 0  9990,2 45417  53.0527 202.0157 0006116 119.3374 240.8241 15.40299928316240
STARLINK-1308,45419,53.0529,0.0001524,15.0639309,546.1773098262174,548.2881625218033,1 45419U 20019BM  25343.35706946  .00001880  00000+0  14507-3 0  9998,2 45419  53.0529 212.1367 0001524  84.1088 276.0074 15.06393090315856
STARLINK-1329,45531,53.0551,0.000148,15.1703278,513.7939493360363,515.8342628634427,1 45531U 20025A   25343.91670139  .02083586  00000+0  94843-1 0  9990,2 45531  53.0551 149.4016 0001480  96.3603 348.4489 15.17032780  5823
STARLINK-1338,45532,53.054,0.000121,15.06407117,546.3517809079922,548.0277099803907,1 45532U 20025B   25343.73487656  .00009881  00000+0  68118-3 0  9993,2 45532  53.0540 150.4405 0001210 100.5806 259.5320 15.06407117311532
STARLINK-1350,45535,53.0734,0.0001658,15.33550875,464.0935531436289,466.3628130383413,1 45535U 20025E   25343.73432873  .00018254  00000+0  56495-3 0  9996,2 45535  53.0734  94.7872 0001658  97.5565 262.5624 15.33550875312342
STARLINK-1362,45538,53.053,0.0001143,15.06391612,546.4456957908633,548.0288363480868,1 45538U 20025H   25343.76705108 -.00001148  00000+0 -58205-4 0  9994,2 45538  53.0530 150.0136 0001143  83.4657 276.6462 15.06391612311542
STARLINK-1368,45540,53.0549,0.0001394,15.06408732,546.2194058868636,548.1501856035175,1 45540U 20025K   25343.83805751 -.00001641  00000+0 -91280-4 0  9998,2 45540  53.0549 149.9778 0001394  89.2462 270.8687 15.06408732311547
STARLINK-1371,45542,53.0548,0.000155,15.06394903,546.153748105392,548.3006110010529,1 45542U 20025M   25343.74223102  .00000867  00000+0  77130-4 0  9999,2 45542  53.0548 150.4049 0001550  92.5181 267.5985 15.06394903311532
STARLINK-1372,45543,53.0553,0.0001233,15.06394661,546.3740237578586,548.0818187474397,1 45543U 20025N   25343.84545450  .00002473  00000+0  18488-3 0  9999,2 45543  53.0553 149.9445 0001233  94.1628 265.9502 15.06394661310643
STARLINK-1373,45544,53.0543,0.0001396,15.0639782,546.2514597409463,548.1850189237684,1 45544U 20025P   25343.73116862  .00002085  00000+0  15886-3 0  9997,2 45544  53.0543 150.4553 0001396  86.9462 273.1686 15.06397820311538
STARLINK-1294,45551,53.0452,0.0001685,15.67409721,365.18087679250584,367.4537578974514,1 45551U 20025W   25343.61820839  .00114338  00000+0  10280-2 0  9995,2 45551  53.0452  68.1781 0001685 149.3291 210.7823 15.67409721312686
STARLINK-1325,45554,53.0509,0.0008713,15.77078536,332.8705628038215,344.57536297515344,1 45554U 20025Z   25343.91670139  .00123241  00000+0  73304-3 0  9997,2 45554  53.0509  58.1019 0008713   5.7768 112.2485 15.77078536  5842
STARLINK-1327,45555,53.0537,0.0001445,15.06407337,546.1883615639827,548.1897807985542,1 45555U 20025AA  25343.70351900  .00000862  00000+0  76746-4 0  9994,2 45555  53.0537 130.5805 0001445  92.7400 267.3755 15.06407337311801
STARLINK-1356,45564,53.055,0.0001322,15.06392009,546.3205149935102,548.1515836277476,1 45564U 20025AK  25343.70722123  .00000980  00000+0  84680-4 0  9990,2 45564  53.0550 130.5633 0001322  89.9731 270.1410 15.06392009311803
STARLINK-1357,45565,53.0594,0.0005997,15.38610969,446.1209436024701,454.3108700789353,1 45565U 20025AL  25343.77050065  .00105591  00000+0  26996-2 0  9995,2 45565  53.0594 107.3084 0005997 145.3772 214.7623 15.38610969312149
STARLINK-1361,45567,53.0563,0.0001519,15.06411328,546.12488429516,548.22879463959,1 45567U 20025AN  25343.79198485  .00000616  00000+0  60241-4 0  9993,2 45567  53.0563 130.1827 0001519  87.2539 272.8624 15.06411328311820
STARLINK-1363,45568,53.0513,0.0005507,15.48670419,416.8705058635833,424.35865085198657,1 45568U 20025AP  25343.75106830  .00114112  00000+0  20748-2 0  9996,2 45568  53.0513 117.3270 0005507 219.7787 140.2818 15.48670419311998
STARLINK-1366,45569,53.0509,0.0004527,15.45722499,426.17427197892084,432.3376855819097,1 45569U 20025AQ  25343.76510229  .00111418  00000+0  22447-2 0  9993,2 45569  53.0509 117.2945 0004527 236.5221 123.5353 15.45722499311994
STARLINK-1376,45570,53.0558,0.0001332,15.06396226,546.3006667602558,548.1455826974843,1 45570U 20025AR  25343.78830036  .00000359  00000+0  42966-4 0  9999,2 45570  53.0558 130.2032 0001332  93.5694 266.5447 15.06396226311813
STARLINK-1320,45572,53.0555,0.0005136,15.48485285,417.6643477721227,424.6485820192629,1 45572U 20025AT  25343.65284454  .00117192  00000+0  21437-2 0  9996,2 45572  53.0555  63.3928 0005136 116.3878 243.7657 15.48485285312761
STARLINK-1321,45573,53.0543,0.0001214,15.0639907,546.3736705948368,548.0551459167627,1 45573U 20025AU  25343.77447778  .00001650  00000+0  12961-3 0  9994,2 45573  53.0543 120.2633 0001214  91.1276 268.9852 15.06399070311653
STARLINK-1328,45576,53.044,0.0002778,15.85587564,312.81154827644787,316.53007229584364,1 45576U 20025AX  25343.91670139  .00223941  00000+0  88794-3 0  9998,2 45576  53.0440  76.2170 0002778 188.9471 281.2113 15.85587564  5861
STARLINK-1331,45578,53.0566,0.0001504,15.06390186,546.2000596511571,548.2832135450471,1 45578U 20025AZ  25343.81871360  .00000888  00000+0  78521-4 0  9999,2 45578  53.0566 120.0651 0001504  95.9510 264.1651 15.06390186311975
STARLINK-1333,45580,53.0552,0.0001395,15.06403849,546.2336768545474,548.1658458109587,1 45580U 20025BB  25343.82516457  .00001244  00000+0  10236-3 0  9991,2 45580  53.0552 130.0336 0001395  90.6804 269.4344 15.06403849311822
STARLINK-1335,45581,53.0537,0.0001218,15.06399801,546.3686603160395,548.0556753733272,1 45581U 20025BC  25343.76343492  .00004642  00000+0  33030-3 0  9994,2 45581  53.0537 120.3140 0001218  87.7085 272.4044 15.06399801311950
STARLINK-1337,45582,53.0546,0.0001352,15.06405699,546.2577866155971,548.1303961427047,1 45582U 20025BD  25343.78552832  .00001839  00000+0  14229-3 0  9991,2 45582  53.0546 120.2155 0001352  88.7818 271.3326 15.06405699311954
STARLINK-1347,45586,53.0532,0.0005699,15.37401369,449.9035357168186,457.6905741526325,1 45586U 20025BH  25343.59693892  .00057635  00000+0  15471-2 0  9990,2 45586  53.0532  98.8367 0005699 142.5538 217.5862 15.37401369312237
STARLINK-1360,45588,53.0394,0.0004342,15.88302211,304.1399222195796,309.9453322078525,1 45588U 20025BK  25343.91670139  .00320680  00000+0  10997-2 0  9998,2 45588  53.0394   2.5923 0004342  34.5632  66.4332 15.88302211  6037
